{
  "type": "FeatureCollection",
  "features": [
    {
      "type": "Feature",
      "properties": {
        "norad_id": 32461,
        "name": "FENGYUN 1C DEB",
        "group": "fengyun-1c-debris",
        "lat": 73.77053206945405,
        "lon": 163.89452871157343,
        "alt_km": 907.0793624754424,
        "timestamp": "2025-12-03T19:33:07.262599+00:00",
        "meta_object_name": "FENGYUN 1C DEB",
        "meta_object_id": "1999-025DBZ",
        "meta_epoch": "2025-12-03T02:25:21.166752",
        "meta_mean_motion": 13.72796083,
        "meta_eccentricity": 0.02319021,
        "meta_inclination": 98.3345,
        "meta_ra_of_asc_node": 193.5106,
        "meta_arg_of_pericenter": 142.9947,
        "meta_mean_anomaly": 10.0781,
        "meta_ephemeris_type": 0,
        "meta_classification_type": "U",
        "meta_norad_cat_id": 32461,
        "meta_element_set_no": 999,
        "meta_rev_at_epoch": 67162,
        "meta_bstar": 0.0012933727,
        "meta_mean_motion_dot": 1.409e-05,
        "meta_mean_motion_ddot": 0,
        "tle_line1": "1 32461U 99025DBZ 25337.10093943  .00001409  00000+0  12934-2 0  9994",
        "tle_line2": "2 32461  98.3345 193.5106 0231902 142.9947  10.0781 13.72796083671623"
      },
      "geometry": {
        "type": "Point",
        "coordinates": [
          163.89452871157343,
          73.77053206945405
        ]
      }
    },
    {
      "type": "Feature",
      "properties": {
        "norad_id": 32464,
        "name": "FENGYUN 1C DEB",
        "group": "fengyun-1c-debris",
        "lat": -82.13454365912075,
        "lon": 71.99348386160753,
        "alt_km": 519.266743146849,
        "timestamp": "2025-12-03T19:33:07.262610+00:00",
        "meta_object_name": "FENGYUN 1C DEB",
        "meta_object_id": "1999-025DCC",
        "meta_epoch": "2025-12-01T19:39:49.615200",
        "meta_mean_motion": 14.92402784,
        "meta_eccentricity": 0.01131409,
        "meta_inclination": 97.3575,
        "meta_ra_of_asc_node": 0.8492,
        "meta_arg_of_pericenter": 273.2898,
        "meta_mean_anomaly": 85.5384,
        "meta_ephemeris_type": 0,
        "meta_classification_type": "U",
        "meta_norad_cat_id": 32464,
        "meta_element_set_no": 999,
        "meta_rev_at_epoch": 60629,
        "meta_bstar": 0.001374684,
        "meta_mean_motion_dot": 0.00015906,
        "meta_mean_motion_ddot": 0,
        "tle_line1": "1 32464U 99025DCC 25335.81932425  .00015906  00000+0  13747-2 0  9990",
        "tle_line2": "2 32464  97.3575   0.8492 0113140 273.2898  85.5384 14.92402784606296"
      },
      "geometry": {
        "type": "Point",
        "coordinates": [
          71.99348386160753,
          -82.13454365912075
        ]
      }
    },
    {
      "type": "Feature",
      "properties": {
        "norad_id": 33502,
        "name": "FENGYUN 1C DEB",
        "group": "fengyun-1c-debris",
        "lat": -79.1063034762233,
        "lon": 44.70166889875318,
        "alt_km": 821.3170738274921,
        "timestamp": "2025-12-03T19:33:07.262620+00:00",
        "meta_object_name": "FENGYUN 1C DEB",
        "meta_object_id": "1999-025DCF",
        "meta_epoch": "2025-12-03T07:15:37.224288",
        "meta_mean_motion": 14.21702732,
        "meta_eccentricity": 0.0078784,
        "meta_inclination": 99.0245,
        "meta_ra_of_asc_node": 279.8448,
        "meta_arg_of_pericenter": 180.5167,
        "meta_mean_anomaly": 342.6438,
        "meta_ephemeris_type": 0,
        "meta_classification_type": "U",
        "meta_norad_cat_id": 33502,
        "meta_element_set_no": 999,
        "meta_rev_at_epoch": 86821,
        "meta_bstar": 0.0033581,
        "meta_mean_motion_dot": 7.575e-05,
        "meta_mean_motion_ddot": 0,
        "tle_line1": "1 33502U 99025DCF 25337.30251417  .00007575  00000+0  33581-2 0  9996",
        "tle_line2": "2 33502  99.0245 279.8448 0078784 180.5167 342.6438 14.21702732868212"
      },
      "geometry": {
        "type": "Point",
        "coordinates": [
          44.70166889875318,
          -79.1063034762233
        ]
      }
    },
    {
      "type": "Feature",
      "properties": {
        "norad_id": 33599,
        "name": "FENGYUN 1C DEB",
        "group": "fengyun-1c-debris",
        "lat": 80.86630563873985,
        "lon": 0.5176784763008141,
        "alt_km": 546.4148193677047,
        "timestamp": "2025-12-03T19:33:07.262630+00:00",
        "meta_object_name": "FENGYUN 1C DEB",
        "meta_object_id": "1999-025DCG",
        "meta_epoch": "2025-11-20T10:50:20.760288",
        "meta_mean_motion": 15.13875085,
        "meta_eccentricity": 0.01305425,
        "meta_inclination": 96.6164,
        "meta_ra_of_asc_node": 35.1071,
        "meta_arg_of_pericenter": 19.0845,
        "meta_mean_anomaly": 341.5213,
        "meta_ephemeris_type": 0,
        "meta_classification_type": "U",
        "meta_norad_cat_id": 33599,
        "meta_element_set_no": 999,
        "meta_rev_at_epoch": 65666,
        "meta_bstar": 0.0014461331,
        "meta_mean_motion_dot": 0.00032405,
        "meta_mean_motion_ddot": 0,
        "tle_line1": "1 33599U 99025DCG 25324.45162917  .00032405  00000+0  14461-2 0  9996",
        "tle_line2": "2 33599  96.6164  35.1071 0130542  19.0845 341.5213 15.13875085656663"
      },
      "geometry": {
        "type": "Point",
        "coordinates": [
          0.5176784763008141,
          80.86630563873985
        ]
      }
    },
    {
      "type": "Feature",
      "properties": {
        "norad_id": 33601,
        "name": "FENGYUN 1C DEB",
        "group": "fengyun-1c-debris",
        "lat": 25.23056391215507,
        "lon": 130.74948423954274,
        "alt_km": 956.1732437052015,
        "timestamp": "2025-12-03T19:33:07.262640+00:00",
        "meta_object_name": "FENGYUN 1C DEB",
        "meta_object_id": "1999-025DCJ",
        "meta_epoch": "2025-11-28T21:43:48.473760",
        "meta_mean_motion": 14.07801571,
        "meta_eccentricity": 0.01586414,
        "meta_inclination": 98.3138,
        "meta_ra_of_asc_node": 130.1771,
        "meta_arg_of_pericenter": 181.8859,
        "meta_mean_anomaly": 178.1734,
        "meta_ephemeris_type": 0,
        "meta_classification_type": "U",
        "meta_norad_cat_id": 33601,
        "meta_element_set_no": 999,
        "meta_rev_at_epoch": 90485,
        "meta_bstar": 0.0013995386,
        "meta_mean_motion_dot": 2.622e-05,
        "meta_mean_motion_ddot": 0,
        "tle_line1": "1 33601U 99025DCJ 25332.90542215  .00002622  00000+0  13995-2 0  9991",
        "tle_line2": "2 33601  98.3138 130.1771 0158641 181.8859 178.1734 14.07801571904853"
      },
      "geometry": {
        "type": "Point",
        "coordinates": [
          130.74948423954274,
          25.23056391215507
        ]
      }
    },
    {
      "type": "Feature",
      "properties": {
        "norad_id": 33603,
        "name": "FENGYUN 1C DEB",
        "group": "fengyun-1c-debris",
        "lat": -81.14209534996711,
        "lon": 8.712761717026572,
        "alt_km": 788.5673970853913,
        "timestamp": "2025-12-03T19:33:07.262650+00:00",
        "meta_object_name": "FENGYUN 1C DEB",
        "meta_object_id": "1999-025DCL",
        "meta_epoch": "2025-12-03T02:07:32.721888",
        "meta_mean_motion": 14.79852972,
        "meta_eccentricity": 0.02207971,
        "meta_inclination": 98.8032,
        "meta_ra_of_asc_node": 271.8479,
        "meta_arg_of_pericenter": 102.9548,
        "meta_mean_anomaly": 259.6417,
        "meta_ephemeris_type": 0,
        "meta_classification_type": "U",
        "meta_norad_cat_id": 33603,
        "meta_element_set_no": 999,
        "meta_rev_at_epoch": 98717,
        "meta_bstar": 0.0002218292,
        "meta_mean_motion_dot": 2.459e-05,
        "meta_mean_motion_ddot": 0,
        "tle_line1": "1 33603U 99025DCL 25337.08857317  .00002459  00000+0  22183-3 0  9997",
        "tle_line2": "2 33603  98.8032 271.8479 0220797 102.9548 259.6417 14.79852972987171"
      },
      "geometry": {
        "type": "Point",
        "coordinates": [
          8.712761717026572,
          -81.14209534996711
        ]
      }
    },
    {
      "type": "Feature",
      "properties": {
        "norad_id": 33605,
        "name": "FENGYUN 1C DEB",
        "group": "fengyun-1c-debris",
        "lat": -34.70969070572695,
        "lon": -16.747863757678257,
        "alt_km": 902.3795889566172,
        "timestamp": "2025-12-03T19:33:07.262660+00:00",
        "meta_object_name": "FENGYUN 1C DEB",
        "meta_object_id": "1999-025DCN",
        "meta_epoch": "2025-11-29T06:37:27.772032",
        "meta_mean_motion": 14.07732345,
        "meta_eccentricity": 0.00571999,
        "meta_inclination": 98.6988,
        "meta_ra_of_asc_node": 332.793,
        "meta_arg_of_pericenter": 112.5488,
        "meta_mean_anomaly": 264.4464,
        "meta_ephemeris_type": 0,
        "meta_classification_type": "U",
        "meta_norad_cat_id": 33605,
        "meta_element_set_no": 999,
        "meta_rev_at_epoch": 59629,
        "meta_bstar": 0.00056176503,
        "meta_mean_motion_dot": 9.23e-06,
        "meta_mean_motion_ddot": 0,
        "tle_line1": "1 33605U 99025DCN 25333.27601588  .00000923  00000+0  56177-3 0  9997",
        "tle_line2": "2 33605  98.6988 332.7930 0057199 112.5488 264.4464 14.07732345596291"
      },
      "geometry": {
        "type": "Point",
        "coordinates": [
          -16.747863757678257,
          -34.70969070572695
        ]
      }
    }
  ]
}